IRIDIUM 63              
1 25286U 98021B   25323.43468242  .00000516  00000+0  16846-3 0  9990
2 25286  86.4011  16.9920 0002381  97.8963 262.2504 14.36710434446130
IRIDIUM 69              
1 25319U 98026A   25323.94161193  .00000643  00000+0  19332-3 0  9997
2 25319  86.4003  29.5739 0001787 168.6243 191.4998 14.41181756445496
IRIDIUM 71              
1 25320U 98026B   25323.58297733  .00000376  00000+0  11017-3 0  9994
2 25320  86.4004  24.4004 0000778  21.2387 338.8845 14.41298500445977
IRIDIUM 73              
1 25344U 98032C   25323.48510146  .00000761  00000+0  18357-3 0  9994
2 25344  86.4410 340.8745 0002323 108.9046 251.2411 14.51945798453092
IRIDIUM 82              
1 25467U 98051A   25323.91980075  .00038674  00000+0  76819-3 0  9992
2 25467  86.3642  32.5712 0066959  62.6943 298.1110 15.44334800447874
